<kml xmlns="http://www.opengis.net/kml/2.2"><Document>
<Placemark>

  <Polygon>
<outerBoundaryIs>
  <LinearRing><coordinates>71.08521258144444,24.69305278923332
71.08553360833636,24.68450408617673
71.08400759904282,24.678522257150973
71.07346350011443,24.663203993807485
71.0611575251369,24.655414523541197
71.02675651809221,24.64395595897554
71.01119953814606,24.634575603485075
70.99865752877488,24.62013626650935
70.99063152120081,24.603647889481465
70.9870604951686,24.59174659278966
70.98562651917203,24.568369632449617
70.98789248287858,24.54868054187216
70.99694057972684,24.511801508970393
70.9919436243251,24.479964023195237
70.99459062935037,24.464154747963278
71.00018353806843,24.44264494037634
71.01148955199619,24.43668507193695
71.01976751957997,24.431426433517856
71.03204348734408,24.429816605192457
71.05507662201552,24.433957265364995
71.06836663242674,24.43164536882898
71.09739651591161,24.4336964205379
71.10845962228512,24.43164536882898
71.11496749955467,24.428204765210296
71.12021658260414,24.42339673790633
71.12422950257215,24.412647449988015
71.12222253967397,24.40461792201461
71.11519649314963,24.398208113012288
71.10993953111117,24.395696224266317
71.09642052710495,24.39226651712181
71.08238251565365,24.38883748052956
71.071853504151,24.38126577210801
71.06610854770918,24.37395943474121
71.04856153630925,24.35907116303099
71.04255657323071,24.354720284726625
71.02303361197434,24.34991041340396
71.00924655470436,24.349460472841088
70.99072254866937,24.35906915137423
70.98496250480184,24.360437916164074
70.97846250652128,24.35975009718885
70.968192495827,24.354701173987394
70.94918049538867,24.33956010407718
70.93266261406157,24.335440231024563
70.92748259789434,24.33250337978717
70.92189756816526,24.327870701897837
70.91590148990409,24.321912006924833
70.90814252976543,24.317092244956427
70.87212364776832,24.301711955529356
70.86563152847677,24.29391326516958
70.86540253488178,24.28110085560172
70.87666362180849,24.275394288276516
70.89969658884186,24.26718371119432
70.90163448485782,24.262391777144444
70.89808659287843,24.25755290443675
70.88945759118934,24.252724257650982
70.85619350549243,24.24674561374843
70.82746151484668,24.22723539298488
70.81397251805387,24.22216668849194
70.8032225595833,24.219867867724872
70.77596259877461,24.21821395058879
70.72295359902506,24.2185460415929
70.67842054741246,24.222104662408356
70.65617363525959,24.221805931378924
70.64566759017166,24.224746805929783
70.61934657015755,24.23565602056084
70.58833352837954,24.240134974345835
70.58231364551332,24.243092612703094
70.57527955236193,24.249924534349702
70.57274654121997,24.257244115123513
70.58518260333489,24.275384062354647
70.58664658654487,24.28225286437521
70.57739263015443,24.284043574171278
70.57459257157703,24.28922141104374
70.5771026163043,24.29527331278007
70.58599849779074,24.30578069897257
70.58496852952757,24.310453442359176
70.5790094992785,24.315429275364863
70.57649258139062,24.319990874715245
70.57269256176346,24.333510213997556
70.5677566266169,24.33675015485403
70.56514750779402,24.341029954619387
70.56210353583401,24.34881942488562
70.56352963284161,24.35556316891075
70.56880151466774,24.358166923315594
70.57766755657886,24.362698683090628
70.58503759640982,24.370411542761815
70.59289563064411,24.386188631485595
70.59696957086729,24.395867047453237
70.59769460549265,24.400567115844183
70.59521456797879,24.40633855910005
70.58914154384641,24.411415310220093
70.58236661914145,24.413916470129948
70.56802350641428,24.41592628287526
70.55481748267292,24.413807170112477
70.4785535630937,24.38740870131295
70.44226059286248,24.38037896675121
70.41826655681012,24.372019359430453
70.41188859903991,24.368881510154722
70.40868352690072,24.364988619040332
70.40177952088672,24.363918752917982
70.38379648288318,24.355590158639018
70.35855857239844,24.34997948028621
70.31017252753057,24.341058956004417
70.25534063147671,24.321459719429072
70.13366657793577,24.2936631491786
70.12068150116235,24.289683589185245
70.11321255487383,24.28596353291448
70.1085205331099,24.277913050183088
70.1013794868739,24.263892808366506
70.08889749192954,24.23175625628579
70.07309760442911,24.206686486778892
70.06096664359006,24.192857184716843
70.03440053672688,24.172751178275064
70.01920364334146,24.167821445736877
69.99999952968219,24.165463616371426
69.99363749752803,24.16514845681172
69.97231259472534,24.164473713605503
69.96411157301279,24.164177664785086
69.91575654118668,24.162856676843376
69.83499958622511,24.16534945485006
69.73342852164083,24.1721693065561
69.71710962669528,24.178429079491423
69.71003764734152,24.18384580060456
69.70517748459974,24.187627380044717
69.69767752526943,24.194257297824606
69.68225063246066,24.20783765736212
69.67163864011647,24.217190017295877
69.6342466347399,24.24672449135238
69.60758950040812,24.271318336396575
69.60108950212759,24.277044014461012
69.58958450181825,24.28531561179841
69.57652264681167,24.281342924965656
69.5560986309631,24.273584132465032
69.53713960415294,24.269924258259095
69.51820354375747,24.263294843393453
69.50523355440976,24.260854703738744
69.48121655194268,24.260343742920668
69.44206250287888,24.269044493701017
69.41150661010047,24.271413387178654
69.37799056439388,24.262393788801205
69.36560848173545,24.262132776336102
69.32692750728734,24.271493350535025
69.31088253293785,24.27357424181929
69.29591362731901,24.271543306677984
69.26083351847842,24.258492012869397
69.25081664126023,24.25563311333167
69.24397248203499,24.25340134779009
69.24388162220447,24.267303572409844
69.24591859231606,24.27336234730683
69.24269055376215,24.279754051398243
69.23310852968112,24.28851246967247
69.227012539134,24.2906632660293
69.21218159964155,24.291903284786258
69.19183352383584,24.286513553401335
69.1805265040797,24.29407134786362
69.17832156062832,24.29979182914809
69.17680359796182,24.30714074658306
69.1875305900177,24.350629580697102
69.18588254021381,24.375546296651862
69.19133748280547,24.412426335382065
69.19136061685825,24.439923001136606
69.19409948754239,24.454554283695245
69.21077763085836,24.47948306959063
69.23636657544844,24.522669819913915
69.24269860038919,24.52814186158804
69.24685652728229,24.531261605952864
69.25504262920717,24.534240366706115
69.26283260238762,24.534441364744453
69.27520764424736,24.532209599202872
69.2882235664245,24.53347057271776
69.29593659373373,24.535511398504866
69.30895955670954,24.543929846785943
69.31706251015484,24.556611163388027
69.31952662205265,24.57238942557825
69.31086761315018,24.648204913337167
69.31301857714507,24.65866418740535
69.31652858292207,24.666144868358344
69.3238065894561,24.673493785793312
69.34497055971767,24.68719283307985
69.35207355211321,24.700313361408746
69.35922264497628,24.726372027853188
69.36869855416299,24.743480162802484
69.38641353890273,24.76286934888401
69.41039248752938,24.783109130500577
69.44902752914805,24.824266454425185
69.46909363773068,24.84184531705722
69.48806758432855,24.861722329904012
69.50113664777186,24.877985736650487
69.51988260660312,24.905463291665797
69.54524959839691,24.93103228732633
69.56407954389809,24.956430795076074
69.6250075981371,25.022097809736863
69.64756061739422,25.050577505096783
69.66885350132677,25.103071017800573
69.6827926063205,25.125581959903684
69.69052860004444,25.144251811054062
69.70606261357588,25.19660836345986
69.71190664411333,25.251765812633323
69.72141256051344,25.295674747734893
69.7300564819902,25.318283590467217
69.76136054344673,25.37770089047649
69.77303351709585,25.409628397891822
69.7809296051706,25.424367639363425
69.79740859446693,25.448536521916196
69.80766251190713,25.469336549941545
69.81971753270335,25.489242564173367
69.82507356883744,25.504853691214123
69.8268966327798,25.519684295430466
69.82440955446725,25.526573716932887
69.80609157561253,25.537282436439796
69.79815659550701,25.539661220563232
69.78978760045467,25.539943355424327
69.76763154813233,25.535531289226753
69.75900254644324,25.536043423511273
69.74694048484835,25.53254364365614
69.70747362315777,25.514792449094614
69.69992856918833,25.512774589722312
69.66506957495372,25.493505264856253
69.61638664307509,25.479226189869394
69.59265864862974,25.47659511046021
69.57821662944502,25.4843659729014
69.56999264131773,25.50382405822711
69.56778753022829,25.51696420020943
69.5595935493144,25.54313417832816
69.5508575945407,25.561892039461952
69.54765352822986,25.567131064227624
69.54296150646596,25.57073092400674
69.5420985057142,25.581580291849093
69.53196763461273,25.596369657101718
69.53436251199025,25.601050279477306
69.50499752001613,25.66003758785331
69.49812352121555,25.68391645655595
69.49294249921991,25.710162374717527
69.48583263366376,25.76886955988914
69.48570254652634,25.782152026587482
69.46629357915327,25.800200108159743
69.44985163786902,25.805820677158295
69.42352257122786,25.818140230818926
69.39837652640199,25.83255844539866
69.33796664141775,25.874337538901386
69.32585948518374,25.88606717421601
69.32274661397955,25.90217534811552
69.32182359880099,25.921584315488587
69.32682759500139,25.96750339861154
69.32610356620444,25.988311305625928
69.32261652684213,26.014820080271306
69.30477849576368,26.037280060403077
69.30120864319792,26.044829640600256
69.29943855288369,26.058899168007486
69.29541758628861,26.064578913242542
69.28053249970162,26.07507825280794
69.23936461457902,26.091431681194592
69.23348957099984,26.0942386129326
69.22914858334121,26.101767238371792
69.20712261815629,26.124070309275965
69.20636757631752,26.129610914918146
69.19963858444203,26.128765851439198
69.18586762042614,26.135815702568607
69.18372352959184,26.145945064927503
69.18045056403687,26.151874926153482
69.16960153147065,26.162923448015476
69.16336053399849,26.17317283922796
69.15302262988837,26.18401348989096
69.13760361606862,26.207942314736556
69.12133048631446,26.22741146417451
69.11184653050069,26.235491115928937
69.06114959492518,26.264127720516456
69.06246957703848,26.276043266443708
69.0558926328867,26.26713263280766
69.03077659527423,26.28862869407334
69.01939363547524,26.305624846796093
69.0210876181086,26.310100615457884
69.01294761665119,26.31452760144316
69.00613363227743,26.320520159304976
69.00610362506401,26.280056186411684
69.00170849031085,26.267908461766297
68.99398054321395,26.263298750291654
68.97947649794565,26.262209773430072
68.95761850610052,26.266699623689192
68.9499515792588,26.273657273883543
68.9477305425533,26.278228260965534
68.94216948506735,26.283627882996143
68.93483749907682,26.27509929650722
68.93179352711681,26.268299729006912
68.9293515434434,26.25204034557396
68.92549855018811,26.23966982994193
68.92427864799882,26.211871248034697
68.91693157458258,26.177652631203273
68.91677852103047,26.16192533098439
68.91251364105275,26.140514429855045
68.90838655956338,26.135084800611025
68.89495053639871,26.12683600205031
68.88037859771461,26.12156613188091
68.87075064080415,26.120145231653282
68.86229648561547,26.121295228770066
68.8558275003767,26.123885236853653
68.8458485093609,26.13771437127764
68.8340375695854,26.146404225583865
68.81185151004965,26.153174791699143
68.7960125628804,26.160594620035056
68.78523259719643,26.16861224570596
68.77015657085491,26.188543070371168
68.76602948936554,26.2025334726124
68.76304653766067,26.206841267934408
68.76451856749773,26.21475110233041
68.76355749847872,26.21958176077294
68.75856758387567,26.223141722692958
68.7612766149845,26.231781117941978
68.75868962438602,26.239110924637657
68.75872063742781,26.244658738716623
68.75592057885041,26.25082731654527
68.74629949510054,26.261657908924462
68.74004357784071,26.26517864353758
68.71948260169412,26.268738605457543
68.7139666388473,26.272278450809893
68.69853253760178,26.288027543977023
68.6854785615842,26.295277219678326
68.6546785877851,26.299458112986088
68.64891854391757,26.302987061864314
68.63419355168136,26.31943721741368
68.62364962039103,26.327456854741342
68.59780150735452,26.341256149590038
68.57498160830008,26.34959496979087
68.56059256274344,26.351694636538298
68.55657159614839,26.356205441555403
68.5416715897737,26.364316106351623
68.5294185884243,26.37018310330376
68.5227125629635,26.371834841145073
68.50623357366717,26.387063082848385
68.4932635843195,26.403322466281338
68.4911805137404,26.4102011589477
68.4594426049751,26.435361955923156
68.39775062407992,26.507948734575905
68.3768005599876,26.54246608243676
68.36271661570683,26.57742465368125
68.36019148355385,26.588454064803955
68.36263262903694,26.602884516962263
68.36691259644039,26.616201014187595
68.37126163072602,26.621901546542517
68.38314063155539,26.6313033597051
68.40425162818886,26.652101376073688
68.4091035766655,26.658500959154082
68.41526762826646,26.6755913244686
68.41468860639458,26.682979804486592
68.41240654943391,26.694019273893105
68.40872957614548,26.702230186251427
68.39862854461933,26.71648931230868
68.39247857461572,26.7281079712252
68.3815235947933,26.738407486218705
68.3689725329667,26.744257216450308
68.3543166076127,26.756756645753285
68.35627763768147,26.764447377200042
68.3602295373943,26.773836952783995
68.37732660823136,26.79867689050559
68.3861316298873,26.808676333365156
68.40077263545362,26.819784702015852
68.41999049543409,26.843764824108916
68.44024653794287,26.879341141617942
68.44605251463983,26.893641674276978
68.44702950927487,26.900610388583516
68.47132864660313,26.95019705726338
68.48735048689983,26.965738279231573
68.51172657009928,26.978287999953636
68.53938249201437,26.99833684181573
68.59660356575156,27.054914353026504
68.61493663203203,27.07722362653908
68.62796764163491,27.09774168734134
68.66761756409102,27.12136155523558
68.67920655107022,27.13327022800223
68.68846151328904,27.14603955458773
68.69518262617558,27.157807076104746
68.69905858584556,27.169729327554535
68.69927953281348,27.176908259992956
68.69374060355193,27.192719379243613
68.6857226426049,27.206138806240006
68.6765214922045,27.229477042187284
68.6747286031136,27.26043543395656
68.67571263854734,27.26763532115291
68.68927757538296,27.300891863136997
68.69290962167034,27.306562388278508
68.70459751510711,27.31685201262627
68.72547163915661,27.329262593755516
68.73481762884401,27.327441709107973
68.74044054477545,27.322281977146417
68.74176756768742,27.314912272591584
68.7378765205917,27.302772762211305
68.71601048211949,27.258394775807574
68.7019885639223,27.236235538362052
68.69917257972887,27.229436976690067
68.69902053200511,27.214397663084526
68.70437656813922,27.203207989972952
68.71975752811855,27.191848499502896
68.72931658578483,27.178478022821082
68.73426056755844,27.164499858158536
68.73457354782332,27.137889830122674
68.7324064905743,27.12788016134124
68.73428353397318,27.12007158033572
68.73879953577026,27.116260664234403
68.7437515641709,27.114550923623085
68.75466949598129,27.105382295007075
68.76458763437995,27.101733484913325
68.79599764309273,27.094289684334342
68.79953748844508,27.089301949026094
68.80832658448497,27.087933016598242
68.81363652015156,27.090171822938487
68.83010058966022,27.090169811281726
68.85140252604819,27.097482518894935
68.87743353221217,27.115560942956677
68.89472154280372,27.13340199152026
68.9023665090591,27.148188506925862
68.91397058346408,27.180447937707243
68.92143248895391,27.193618422179043
68.93241848181813,27.208727640857205
68.93891948592707,27.213766673412863
68.94600655270656,27.216507388115758
68.95139360188244,27.210867540739855
68.9537735594723,27.202596949230895
68.95484158157589,27.188048647513767
68.95361363275956,27.17343915790343
68.95677964522994,27.15801913825527
68.95770249277041,27.14069173271872
68.95039364083269,27.10392132928223
68.94877660407056,27.08560217696106
68.94042956960456,27.036076360898278
68.94876855744351,27.033064575446474
68.95874754845929,27.033175384206572
68.96523262695217,27.038214249124223
68.97338050739856,27.040054076872934
68.98322253811631,27.044723970412463
68.99017348278812,27.051154734172712
69.00100759556668,27.069962719087528
69.00653864583921,27.086772961197653
69.0104295252969,27.092662756926472
69.0162505894196,27.108552163152922
69.01895861470004,27.12504959263623
69.0195386424003,27.157009957111995
69.02156052508619,27.171407384571808
69.02250650667943,27.22743403710541
69.02091964476878,27.248915178583445
69.02819061050414,27.28775322989725
69.03179952273871,27.301273910284067
69.03775754715943,27.31393209283334
69.06363650559965,27.34447088652928
69.07118960619613,27.356241425531437
69.09458953295086,27.38509210392624
69.12322261713905,27.432818157737472
69.14148762236564,27.46845448967332
69.16046156896351,27.492555646448352
69.17804764003228,27.519383436328894
69.18675258176421,27.528404040534724
69.2028275633271,27.54061261779725
69.21723152867139,27.55601185032549
69.24743655498256,27.594630128137794
69.25036653305929,27.61879917832863
69.25948352915171,27.645406021241286
69.27694655388177,27.669678001203238
69.2911605852999,27.684146507202
69.29505163239563,27.690947080530748
69.31741354426018,27.716255063726123
69.33099356852154,27.727004519282502
69.33812757395887,27.729724446865475
69.34587848747049,27.737315098388194
69.35975657220905,27.746904833820167
69.40321355509099,27.769003721562797
69.41632050473669,27.771401616425464
69.43121363795075,27.767363886024043
69.4406206478933,27.76892392584449
69.4464034905375,27.77245253944659
69.4542236385694,27.770083645968896
69.46198259870806,27.770012735068008
69.51042949619307,27.775803624339233
69.53153948699813,27.77967338140087
69.55222350948344,27.77984319875935
69.55938752213416,27.782284176604378
69.5669325761036,27.78105220447452
69.58059658703488,27.78177321578636
69.59596262722653,27.788501872385723
69.61316648351013,27.804901401239874
69.61862964036692,27.814421902151537
69.62091857048819,27.82733020069179
69.62153648439087,27.845249536231165
69.6354065225024,27.871918405227348
69.66892960900765,27.91181492327513
69.67633854086938,27.91608650877538
69.68341856685021,27.912087838042737
69.68562351030161,27.90615814445482
69.68702664089449,27.88964864503089
69.67922962691537,27.868149733918074
69.6793595464147,27.86217997483294
69.68534053725014,27.860919001318052
69.69721953807951,27.873539297664934
69.71678155900469,27.889737828480747
69.73211658615458,27.909765883222917
69.75038963800824,27.926867312649676
69.76162759088217,27.933955888171738
69.79534161714196,27.943057461562262
69.81114955126944,27.95435392012041
69.83213750156415,27.96597559652207
69.83569360780868,27.969706213990833
69.84771761556311,27.988513695991514
69.85238650327426,28.000533177518207
69.85619356370009,28.016912254528563
69.85746761298392,28.030251718168586
69.8472596283732,28.04729195970208
69.84767956172266,28.052120774125967
69.85919948181964,28.071381214174608
69.86586762107805,28.074940002628182
69.87640350574134,28.079018636717137
69.89292960133355,28.082290596443727
69.91777054488355,28.084550692818084
69.93359356643677,28.083890701761447
69.9465025355293,28.08664046891971
69.95765650173331,28.08590034686864
69.9766995152134,28.080470717624564
69.98429150784065,28.0764710410636
69.98860148245748,28.068500354050514
69.99413253273005,28.05090003374636
70.00023656990422,28.04320041748224
70.00845351723282,28.047461106508308
70.02310961022485,28.06653043916441
70.04548660951511,28.0884694001943
70.05258960191065,28.097310128757783
70.06714662080705,28.122567988172136
70.07887256808431,28.133088450133585
70.08519755222639,28.141677051049328
70.10031850556896,28.151327639098383
70.10598752196793,28.153486817358385
70.11559251246368,28.153166628656777
70.13883251250567,28.144567969457228
70.14566057847682,28.13984811977474
70.15892058167464,28.123748998330655
70.16510759969032,28.12590599729583
70.17739848724213,28.13458746969883
70.20110351527273,28.143208257122808
70.21286751639042,28.15256782549335
70.21777361196163,28.15447873178107
70.23462660177799,28.154255605518358
70.25295262725979,28.144877094046592
70.2658386299376,28.14942779692285
70.27406362389326,28.154136750131215
70.30198659324373,28.159347611702174
70.31967157077008,28.172225903029016
70.32422663223596,28.178483664307578
70.32544754025363,28.18309354342034
70.32405061226913,28.189505364079366
70.3184275286996,28.19998592818166
70.29920162209206,28.216945032892284
70.30169657939359,28.222483794515824
70.30629757368894,28.226683798562874
70.3151015895165,28.228184662146873
70.32943749380695,28.224713883676714
70.34668761819611,28.21737603035399
70.35501051278098,28.21633516561667
70.3635406080125,28.21851697501529
70.37243648949894,28.23011350570738
70.37783057947348,28.24970268399892
70.3826065879073,28.259641274241346
70.38509349858177,28.282631325930424
70.38271354099192,28.301431767132385
70.38646662196126,28.309751308955924
70.39367656744142,28.31374126250921
70.41528360510526,28.311510167519884
70.42825359445297,28.31282009134941
70.44287163360454,28.324269771097704
70.45255256414313,28.33747897996227
70.46817056434449,28.368897873492415
70.46991752060592,28.373518649079244
70.47145057069815,28.3923650231107
70.47499863031561,28.398376524073683
70.49490363871908,28.42319550703735
70.52205664644313,28.450164448167527
70.54826350493587,28.472754683074754
70.56656656400295,28.483763307077595
70.5944975799805,28.496272794664378
70.61678355180217,28.503413337986217
70.6309206373491,28.496463566780847
70.6343915834573,28.490074041984258
70.63964854549576,28.486232951031468
70.6671906411656,28.489303912719777
70.68348656969641,28.49546259990268
70.69711252678724,28.508693098801302
70.71675149358364,28.539441942991004
70.72283155851471,28.55236029981512
70.73384051779365,28.58668888721627
70.73715254301749,28.592698711798676
70.75306659203926,28.610776130032036
70.75952954230772,28.614736746924223
70.77691662699493,28.619520634346998
70.81532250738059,28.610737908553517
70.83746363991526,28.61096086717822
70.86189252910478,28.615797728229154
70.87766257702987,28.626278459969456
70.87912756606823,28.634328942700847
70.87386356323108,28.639556903354332
70.86678353725026,28.643397826669002
70.84584856058365,28.65029646826497
70.82549260578895,28.653317306172198
70.81063048561666,28.653395257871807
70.78948964940787,28.655936315640815
70.77745860085477,28.659485884000844
70.77037052824687,28.663534846152572
70.76323652280956,28.671495474881795
70.76052849752912,28.67950639503016
70.7609405518896,28.688235811919412
70.76320651559615,28.694455686995582
70.76806651069987,28.701625399340458
70.77529154360576,28.707665231136218
70.79886648449897,28.71939453117477
70.81263761615293,28.723663602104068
70.84439849133295,28.727884393270983
70.88350660756728,28.728504151192396
70.90144354510332,28.733263060543663
70.91623659839337,28.73960296447342
70.9232326377043,28.744721625109378
70.92759659177761,28.750273294863803
70.93399064280194,28.76135282976753
70.93599659987174,28.7691726425233
70.93608058654164,28.785011086778354
70.93048063702491,28.7959836685975
70.91140761633145,28.821510587104
70.9068835679073,28.829729043175178
70.89481362732343,28.857387982575403
70.89552357452305,28.864740923323893
70.9108964878753,28.889448762251334
70.9286495264555,28.913715713071326
70.93657662757204,28.928256135799472
70.94547250905848,28.952435244274113
70.95806162472553,28.97183348281112
70.96991749150209,28.986632068157235
70.9903795611911,29.005182225730152
71.02265961145432,29.04356279276817
71.03845949895472,29.058851216536368
71.08040656579723,29.075499520276992
71.10053252116859,29.077269275315132
71.13249154453987,29.073159628184385
71.14115155927075,29.070250604865578
71.15030660920362,29.069861684557907
71.16153752127886,29.07224063631935
71.19017764626571,29.087608855805854
71.19618948250485,29.0883399254015
71.20353655592109,29.084729169148204
71.21096761600725,29.072839439482777
71.21085362212395,29.057011221149594
71.20033248961028,29.033290267502935
71.20713758916668,29.03127207285445
71.24952654994502,29.0267612678374
71.27881660770467,29.026271429415317
71.2890395121031,29.02474139680828
71.29611953808393,29.021340523410686
71.32187662365186,29.002462465785243
71.33287854213214,29.001152541955776
71.37153655016553,29.005301081117295
71.40547152339323,29.012394015229006
71.44096351895624,29.02339157511966
71.45266750564716,29.031259164723565
71.45262157281769,29.03975170902885
71.4457475740171,29.052099425884194
71.42549857230702,29.0694306870962
71.41750357777471,29.09118876665542
71.41224661573625,29.0955186902018
71.39364650202037,29.099081501968897
71.37114762985783,29.09756856844433
71.34632160609547,29.09373887687991
71.33062749821323,29.09340862989444
71.29786649434539,29.099619452515185
71.28632360783365,29.10412824587553
71.27896161462976,29.10935821818572
71.27394051934687,29.115058750540697
71.270217613229,29.12283849779925
71.26989759216545,29.129947189888924
71.2732464977633,29.136856895597077
71.2781826005479,29.14171689070082
71.29145852936179,29.150757611474262
71.30033161207157,29.154947389599442
71.32382960709356,29.162447181291668
71.35154755509217,29.166754976613674
71.38423161308882,29.17429449852699
71.43055755379231,29.175496631081558
71.44730359052406,29.179715242953705
71.46791049950008,29.191995904583564
71.50071760383543,29.222693619163863
71.5082624901668,29.233523205714675
71.51389362036338,29.256273534972706
71.5180435006294,29.26386217483872
71.55711356302328,29.309730463628398
71.5834885624939,29.32935937214097
71.60075360667074,29.33838919644029
71.64186063917623,29.353477460360466
71.66648063575832,29.36000847168276
71.69661760101562,29.36471910127176
71.70580249052384,29.368419040974914
71.71835355235044,29.378798686962853
71.73480957523202,29.396527082747696
71.7408296257363,29.400676627737596
71.76439652000246,29.412916385679978
71.78746754087629,29.42194688053155
71.84229256376952,29.4347255948486
71.85173058675386,29.43452543500058
71.8780975395974,29.44045529622656
71.88834357804862,29.43934335295029
71.90039859884482,29.443526090276805
71.92109653528942,29.455072664825934
71.9336776043294,29.45947450510164
71.94181861161516,29.459964343523666
71.98297861774876,29.478464712591688
71.98848753979692,29.4800847668389
72.00556952320827,29.47945461535761
72.01606752166916,29.481083722060305
72.06668851720181,29.505323683152085
72.09838049313768,29.525615097292246
72.14672060517611,29.544231136624205
72.20953358180299,29.563991473378678
72.31128653368634,29.60548977312476
72.39581249523332,29.654506975302354
72.41190357005033,29.66871765395922
72.42430861912348,29.685674747013138
72.43750760206612,29.699655426246693
72.4509585450185,29.710416784105576
72.47178656860046,29.72162556795638
72.49471258254923,29.72731520383718
72.50891152654165,29.727055197200457
72.51943953221596,29.725894471247614
72.53231849409508,29.721505371464787
72.55149058888418,29.71228578087738
72.5654375728669,29.711564937203605
72.57649950577397,29.714514696571882
72.59365055606753,29.722735331937884
72.60153960334361,29.723855489479263
72.66207856963689,29.724374496924383
72.68582165150795,29.735305001589552
72.71720852616792,29.746673544515033
72.74436958051905,29.754604333668965
72.76918051685567,29.764374782933544
72.79399849399096,29.775973325282393
72.8148875378281,29.789421753663817
72.8310696401137,29.80656241039742
72.84706851399568,29.835860011869954
72.85665154390509,29.848199682098254
72.87644959922392,29.85407053472585
72.9022826248347,29.854869497737297
72.92622351962089,29.84947976635243
72.94091062565471,29.841829938593207
72.953987568087,29.831210402536158
72.96083055384582,29.82819040281919
72.98403149421898,29.830361315743687
73.0201796251632,29.83705024212196
73.0370485405956,29.837408987578215
73.04467054043627,29.83576110541236
73.05123155897198,29.83182026981177
73.05564848667342,29.82606039358228
73.07200660892585,29.799123471322275
73.09475760873616,29.78131209469592
73.10999255596201,29.77732147059038
73.13234759466593,29.774653510807184
73.14341757420004,29.775042431114855
73.150550573809,29.77774341559666
73.18904161433099,29.80868135552214
73.19650251399247,29.816430760291155
73.20932749641509,29.834700124107428
73.21465251950741,29.8394801558548
73.22392256915194,29.844690682149633
73.23287963853164,29.84438893363506
73.24153160663545,29.840429993123507
73.24594149353823,29.833750286838722
73.24980152759215,29.8252304175291
73.25672162686024,29.782742047378974
73.26190952201648,29.77513044109827
73.27284958205126,29.764033974750134
73.28885650256032,29.75955418277482
73.31552151588107,29.741913796973392
73.33730356768336,29.74402670712783
73.39114354931453,29.920536847674214
73.39813958862544,29.940487118354838
73.40422049174683,29.945067157892254
73.42970265089036,29.9528847913532
73.564620614375,30.004754690460175
73.65058155774693,30.02658401619641
73.66097260312321,30.028042970264494
73.69246659850589,30.03423367631757
73.71621655353758,30.041853496863382
73.79083259095097,30.05892978058057
73.79987364700054,30.062274662864866
73.80752548641655,30.06687565716021
73.84973960069445,30.050053177471455
73.89132658097623,30.030983844815353
73.94489264201133,30.000164089724763
74.00447053928562,29.962068507394974
74.06156152588542,29.93225541887665
74.11566151415332,29.910718453923437
74.13361353911506,29.905237695069957
74.15252663309582,29.90165778422039
74.17051654425995,29.895238922762644
74.21410361427931,29.87471868266556
74.24504859500348,29.857042254680493
74.27580263597312,29.83096045418324
74.29654650524716,29.80735014165856
74.30935656788213,29.78629010699649
74.31919055197284,29.7618731201095
74.3346635452491,29.71290369478004
74.33963049343745,29.666396537329717
74.34535265110259,29.639990524817335
74.35362961285799,29.614579444212836
74.36547860647394,29.590677441457387
74.380416499051,29.56734021133849
74.39022852255539,29.555509825547574
74.4296564922152,29.5161121983773
74.47210664088675,29.478193809480786
74.48135355647852,29.46727537475624
74.48417658147062,29.46082432679026
74.51072659507969,29.430819627965207
74.52474264594466,29.416765020345565
74.53220354560614,29.41138652071095
74.5507585646829,29.400266920310003
74.57119750031913,29.394327168438224
74.58003252918846,29.39364706081392
74.59552765068912,29.395036947999756
74.61406758234017,29.398366742858343
74.64495053698079,29.418857143380137
74.6826935764627,29.450725977473155
74.70947258366672,29.470615227898634
74.73522162260761,29.47599473336163
74.76284049651059,29.47256385275068
74.79968264903837,29.47216504179721
74.8427424973475,29.457002681852885
74.86015355427779,29.44813395773275
74.8771896048597,29.43505751821465
74.89868952180083,29.412296292482438
74.91275049966688,29.39493804154222
74.92800154014685,29.3724737028208
74.93920160681839,29.34709983786638
74.94949357809904,29.333369274623863
74.97789750105417,29.30424149050981
74.99778758966994,29.265551966520434
75.01479363303844,29.23564433013422
75.02454363045925,29.22189482379048
75.04694359616423,29.200996392221782
75.09623756878491,29.16209614718639
75.1320185723697,29.141979914822684
75.15136752531598,29.134507280496734
75.16591649758533,29.132068314308526
75.19748660064892,29.13050039549904
75.23444358525029,29.121577524284362
75.30503060944159,29.0928867726023
75.33216852973993,29.083249092684127
75.35048650859466,29.07479946372314
75.38020354050249,29.065200843473804
75.410530607324,29.051409259976083
75.42050155171273,29.045561541401298
75.42581148737932,29.040083967671023
75.4644086427956,29.025521584356568
75.4940566078212,29.01683173005034
75.5238876336123,29.00160449417541
75.53234849432354,28.993843690018082
75.55122353446384,28.982574053550138
75.57122761696291,28.96712469724082
75.59741251486932,28.95180526043083
75.6104435244722,28.946465485188924
75.62146757117685,28.93875597827906
75.62991351210044,28.930997018140374
75.65229755218937,28.90204827147835
75.72598252779719,28.81807870066467
75.74787857348278,28.785830836909668
75.76732660052468,28.746983565502433
75.78746060252308,28.722625587213827
75.80185652124032,28.700957361656776
75.81191262576539,28.68900476771745
75.83025357103486,28.674406509857363
75.84220163874645,28.669025663289858
75.8773875272052,28.658946089435858
75.9021686239665,28.654267143440904
75.93768358594423,28.65210628880027
75.9849776364654,28.652007214704668
76.01587651672207,28.649276558285578
76.04015352582587,28.643626652625926
76.0624316186586,28.63513896982448
76.07855253305092,28.626068409475693
76.08222950633933,28.621929593321852
76.10247062906046,28.58676885057264
76.10751351729164,28.566307786712002
76.1081775316618,28.557910293188854
76.1054535807653,28.54059194010773
76.10484354585162,28.520021743867687
76.10160058751,28.50269249431244
76.09573359055787,28.488113850105833
76.07135750735841,28.450805496122996
76.06681853914665,28.446994747659744
76.05683150150378,28.43374513802189
76.00464661047522,28.379597372905835
75.94856262572384,28.342628821278026
75.9211806244048,28.329520362889753
75.90045955390744,28.31700098465717
75.86148051898212,28.296651735385012
75.8437574876153,28.28791125438363
75.83206959417853,28.28395147568176
75.80726653683092,28.27133268807745
75.7761076499375,28.24690296069764
75.749656542786,28.218354869007726
75.7025375064033,28.178626827213975
75.66932656197258,28.156467422130333
75.6545866499487,28.15242667424377
75.62859352998714,28.1289876878202
75.51061254298875,28.047502177833906
75.49965655733791,28.036511658741972
75.47161858827576,28.015802490547117
75.45551259367107,28.007032672884577
75.4318005248418,27.996684207576436
75.39893357371773,27.98519479760705
75.3735736227226,27.979474986874777
75.32525664473695,27.973215046301448
75.30445058174129,27.96898754961194
75.29840052402363,27.966505500441315
75.27188152345636,27.965885407243775
75.24442257626609,27.962423681229097
75.21042658278321,27.955525877823504
75.1874925222074,27.95449406554161
75.16132354991703,27.959465875233832
75.14856763437666,27.959145686532224
75.12420663860291,27.95480503414973
75.10346260169084,27.949138364683677
75.0703125098772,27.93193601714262
75.0515975640877,27.926787181655243
75.03357663988177,27.91556850715864
75.02547452462679,27.909661947623476
75.01854654636972,27.895377508218587
74.9693375662473,27.85952894649415
74.94522853048326,27.838609727805476
74.91842655686452,27.808970982873404
74.88208061300517,27.758274214935966
74.8640516421722,27.721194686910053
74.854911512027,27.69047618520989
74.853202609606,27.67623684044412
74.85317260239259,27.62427893135373
74.85771961723145,27.565401425909442
74.86308252652614,27.53317082887503
74.8769076376366,27.4719143716693
74.88317864232218,27.429568158597192
74.88552859269865,27.407489052146047
74.88455964469065,27.36568011906803
74.87748749769881,27.334031393752582
74.84382661270521,27.231423823020634
74.82900958717207,27.196646468523056
74.81900762974155,27.178818998642555
74.78758957440172,27.135919077046196
74.75997153868903,27.110431218208532
74.70078256172246,27.07418451608288
74.62489364849165,27.013705228940296
74.61608158603704,27.008725540259093
74.59848763597927,27.00288570067329
74.57726264546253,26.993406271087224
74.5570225285698,26.978407693531096
74.53147163782018,26.94460934532532
74.51788356693174,26.921748374945253
74.49848951934635,26.882391986738583
74.48753353369551,26.865020995305542
74.46881858790601,26.84357371671632
74.43611961012172,26.81211526060315
74.42311860773225,26.795212985196088
74.41216262208144,26.77599579576787
74.39644655361283,26.73937844588346
74.38339961839392,26.715129432336255
74.36161052579294,26.69001959733214
74.33202358102253,26.652101376073688
74.31285064804308,26.63293229876973
74.25750762353312,26.585065261346926
74.22704359641361,26.563665089053643
74.20279659452316,26.550486893230925
74.16826650616946,26.5346065394599
74.14356956371614,26.53059982210027
74.10959653664798,26.522499215587857
74.09314755456504,26.520746224356117
74.07362358748031,26.520840269309815
74.02942665018534,26.52470801471469
74.00375355128733,26.52803797721134
73.98629756735596,26.533618480712676
73.97142756819468,26.54193634615558
73.96015960810738,26.5525367714734
73.95152255979121,26.575515591412227
73.94953152250906,26.593885035152482
73.95472763193044,26.60993621211037
73.9671935336207,26.6346750640796
73.97810358644207,26.663081669243752
73.98847149776554,26.681401156841048
73.99732261988902,26.703408849477057
74.04090164328127,26.778503828838325
74.06588759375637,26.833953135880677
74.08612050221234,26.861862861824136
74.10163859012775,26.873731301455507
74.12183361238132,26.892460496480396
74.1721805196799,26.955117737346143
74.18467760204999,26.977097937339693
74.19828059272609,27.01055447153368
74.20934252563316,27.048154851023412
74.21523248900002,27.084402223701318
74.2168805388039,27.102309321662005
74.21661349136849,27.144109537560723
74.21112854156343,27.176758223925958
74.19444251925847,27.235646458206304
74.19035349160956,27.244868228088535
74.16171252843242,27.29601309257015
74.14433265218193,27.332402287049888
74.12277255317593,27.36283127781411
74.10735353935615,27.379910243740255
74.06820653109105,27.41317885566491
73.96970357834795,27.486674735536894
73.94339764575957,27.50975497650427
73.92945854076584,27.519003400838585
73.90773750921869,27.526434125648564
73.88703957277411,27.528812071581683
73.79331262846483,27.525894163445514
73.72651657144527,27.521023271867648
73.67421751889532,27.519774535931447
73.65091649859815,27.515686514110882
73.61258655825534,27.50335405231931
73.60428663008523,27.497855356193043
73.59496360681257,27.48132289035442
73.58506759663828,27.442735793221914
73.57775153626383,27.391738785512473
73.5761566277261,27.360040104054065
73.57972748612025,27.324191709967693
73.57549261335595,27.24655617575155
73.57752254266885,27.218977199707695
73.58315249939898,27.181297024499656
73.57531759921747,27.11379085264241
73.5633924979206,27.063283012802742
73.51994356166571,26.95496786891721
73.45905255543875,26.836563260531932
73.43636358171202,26.798024946075998
73.40133661413762,26.75213788182316
73.38744360961138,26.737457481311935
73.36891155694934,26.714049675568162
73.34937250243885,26.67963106652678
73.32879660650462,26.659440905777046
73.30462655048541,26.642462690327136
73.27532157293808,26.61767371457688
73.24653660866423,26.59655467131637
73.2085186427579,26.57450490152638
73.1699986008509,26.54648704903184
73.12481662229385,26.517538302369815
73.10016661849835,26.50511900406127
73.05294062903104,26.486709662461806
73.02368158431315,26.47288941285524
72.9657215619913,26.441133902093213
72.91597764880774,26.41762065200743
72.89241058690354,26.40242342334591
72.87036852846447,26.39089210386055
72.80732756407102,26.36366416192203
72.73771652868638,26.316187385911462
72.68911758347767,26.28711861039585
72.62718956818887,26.25889892167271
72.6016235900135,26.244118776513517
72.57051851493853,26.213251915127046
72.55016356597221,26.18839320194229
72.5114215712689,26.151973832611077
72.4762806098112,26.117408372625903
72.44880657519522,26.087456982705078
72.42539256684313,26.065778698864165
72.39479862022426,26.04497984430526
72.3484725118827,26.007571578036504
72.28630058321127,25.969143401788358
72.26341262310297,25.951582979343357
72.24308751371197,25.932651948089813
72.21066262416178,25.89438671603955
72.1599425545335,25.844526964954014
72.14627854360222,25.82791688269191
72.12711348961179,25.799361079651078
72.11898756975177,25.791968408681498
72.0747985114458,25.761391728783224
72.06472061397244,25.746642596665822
72.06427754657017,25.739303737514717
72.06741355182717,25.73245421387145
72.07515759217816,25.72379369622638
72.09163658147449,25.709695335072126
72.11015354671079,25.697904679502358
72.12296260351738,25.69340493859744
72.16951753781584,25.686846434632685
72.1802366508827,25.686905275593006
72.2528536043869,25.679115805326774
72.27335356027831,25.672816134532297
72.2744215823819,25.665946159045234
72.2719266250804,25.658135734021016
72.26232951357363,25.64478721792557
72.23745755698187,25.62583824939918
72.20704650349046,25.59950935039609
72.18984264720683,25.581523294907413
72.146446516942,25.523924029698605
72.10881763898146,25.45535603834611
72.09279663687505,25.422236624298137
72.06038649947445,25.345452523807353
72.04492155282523,25.312332942121316
72.02989162695121,25.286093226568084
71.99063163063121,25.238596501627967
71.9689635727122,25.216428379365027
71.95482648716526,25.20484710373671
71.94072762309685,25.189156851529958
71.91869361128485,25.154610502284072
71.91326163510792,25.139442275007525
71.91033953602016,25.127042590352403
71.90953856135198,25.10687355199866
71.9114834981666,25.067015758343643
71.91467264468977,25.054204354604167
71.92040251370585,25.041875748488053
71.93022157800888,25.02637962115898
71.94206956579649,25.012268351873843
71.9594874958874,24.99911781633159
71.97888959009984,24.991479220322617
72.03700249833577,24.974969888536805
72.04161858005685,24.97040912737674
72.04321265040423,24.964470548971406
72.0417406205672,24.958038779382775
72.03172256988256,24.943310434385296
72.01212350094531,24.92161974532769
71.98695348387633,24.897603916327
71.95984657661975,24.864865208321646
71.93633248834368,24.83213706151423
71.89718648590696,24.7882889790298
71.85813855173745,24.738940524038412
71.77625255441708,24.62368717597394
71.74726055713461,24.58768773999219
71.7332535587251,24.572908433023372
71.72321354745412,24.56410894342349
71.70308658625439,24.55201050436881
71.67481258279858,24.54349080269725
71.65757754583512,24.54379087483119
71.62861656159444,24.549460729420446
71.6052166348397,24.55610037020807
71.58177949243483,24.566398879373196
71.52564957485401,24.59468746734052
71.46280659101373,24.629746621423124
71.41484064713339,24.65167468597889
71.35700249768382,24.687675798341274
71.30792963966911,24.71276166110232
71.26197049104891,24.73191078947667
71.22884353328809,24.741590211272694
71.18354756084776,24.74927993689107
71.13120257546836,24.754120653617463
71.10991656469645,24.75154992391117
71.05345958525342,24.734174741526488
71.06720758285456,24.71335157944833
71.08521258144444,24.69305278923332</coordinates></LinearRing></outerBoundaryIs></Polygon></Placemark></Document></kml>